{
    "links": {
        "self": "http://www.neowsapp.com/rest/v1/neo/3789543?api_key=iIulBulltgU6a56xZRHN4H3l9WmuAYTsLGpBGhQ2"
    },
    "id": "3789543",
    "neo_reference_id": "3789543",
    "name": "(2017 WN2)",
    "designation": "2017 WN2",
    "nasa_jpl_url": "http://ssd.jpl.nasa.gov/sbdb.cgi?sstr=3789543",
    "absolute_magnitude_h": 24.1,
    "estimated_diameter": {
        "kilometers": {
            "estimated_diameter_min": 0.040230458,
            "estimated_diameter_max": 0.0899580388
        },
        "meters": {
            "estimated_diameter_min": 40.2304579834,
            "estimated_diameter_max": 89.9580388169
        },
        "miles": {
            "estimated_diameter_min": 0.0249980399,
            "estimated_diameter_max": 0.0558973165
        },
        "feet": {
            "estimated_diameter_min": 131.9896957704,
            "estimated_diameter_max": 295.1379320721
        }
    },
    "is_potentially_hazardous_asteroid": false,
    "close_approach_data": [
        {
            "close_approach_date": "2017-11-01",
            "close_approach_date_full": "2017-Nov-01 10:12",
            "epoch_date_close_approach": 1509531120000,
            "relative_velocity": {
                "kilometers_per_second": "3.9967814797",
                "kilometers_per_hour": "14388.4133267979",
                "miles_per_hour": "8940.400491865"
            },
            "miss_distance": {
                "astronomical": "0.2450595868",
                "lunar": "95.3281792652",
                "kilometers": "36660392.208360116",
                "miles": "22779711.4090209608"
            },
            "orbiting_body": "Earth"
        }
    ],
    "orbital_data": {
        "orbit_id": "2",
        "orbit_determination_date": "2017-11-27 06:24:30",
        "first_observation_date": "2017-11-19",
        "last_observation_date": "2017-11-27",
        "data_arc_in_days": 8,
        "observations_used": 13,
        "orbit_uncertainty": "9",
        "minimum_orbit_intersection": ".241189",
        "jupiter_tisserand_invariant": "3.194",
        "epoch_osculation": "2458077.5",
        "eccentricity": ".528739739464282",
        "semi_major_axis": "2.604992932082829",
        "inclination": "5.075097755855858",
        "ascending_node_longitude": "252.2103236037486",
        "orbital_period": "1535.70660028924",
        "perihelion_distance": "1.227629647867058",
        "perihelion_argument": "145.4759454236243",
        "aphelion_distance": "3.982356216298601",
        "perihelion_time": "2458055.156727839089",
        "mean_anomaly": "5.237704895201341",
        "mean_motion": ".2344197777962252",
        "equinox": "J2000",
        "orbit_class": {
            "orbit_class_type": "AMO",
            "orbit_class_description": "Near-Earth asteroid orbits similar to that of 1221 Amor",
            "orbit_class_range": "1.017 AU < q (perihelion) < 1.3 AU"
        }
    },
    "is_sentry_object": false
}